HELIOS 2A               
1 28492U 04049A   23095.61101295  .00003616  00000+0  34054-3 0  9990
2 28492  98.2732  58.0788 0013261 197.2627 162.8078 14.94467347978736
SPIRALE A               
1 33751U 09008C   23095.38550683  .00000430  00000+0  12869-2 0  9997
2 33751   2.0833 339.5806 5477157  77.2824 335.9107  4.58975130208221
SPIRALE B               
1 33752U 09008D   23095.40402993  .00008084  00000+0  19240-2 0  9994
2 33752   2.2110 323.4724 6845871  99.8197 337.0169  2.84478585133350
SAPPHIRE                
1 39088U 13009C   23095.49457399  .00000262  00000+0  10801-3 0  9992
2 39088  98.4179 288.7982 0012306 125.2017 235.0323 14.34426645528981
